"spkid","full_name","pdes","name","prefix","neo","pha","sats","H","G","M1","M2","K1","K2","PC","diameter","extent","albedo","rot_per","GM","BV","UB","IR","spec_B","spec_T","H_sigma","diameter_sigma","orbit_id","epoch","epoch_mjd","epoch_cal","equinox","e","a","q","i","om","w","ma","ad","n","tp","tp_cal","per","per_y","moid","moid_ld","moid_jup","t_jup","sigma_e","sigma_a","sigma_q","sigma_i","sigma_om","sigma_w","sigma_ma","sigma_ad","sigma_n","sigma_tp","sigma_per","class","producer","data_arc","first_obs","last_obs","n_obs_used","n_del_obs_used","n_dop_obs_used","condition_code","rms","two_body","A1","A1_sigma","A2","A2_sigma","A3","A3_sigma","DT","DT_sigma"
54376545,"       (2023 OF6)","2023 OF6",,,Y,Y,0,19.65,,,,,,,,,,,,,,,,,,,"JPL 11",2460200.5,60200,2023-09-13.0,J2000,0.6312,2.621,0.967,9.51,237.77,178.90,336.58,4.28,0.2323,2460301.34,2023-12-22.8,1.55e+03,4.24,0.0219,8.54,1.11,3.07,4.6e-06,3.4e-05,6.9e-07,2.8e-05,2.1e-04,1.8e-04,4.6e-04,5.5e-05,4.5e-06,7.5e-05,3.0e-02,APO,"Otto Matic",218,2023-07-26,2024-02-29,48,,,4,.47991,,,,,,,,,
54376678,"       (2023 PH)","2023 PH",,,Y,Y,0,21.57,,,,,,,,,,,,,,,,,0.47,,"JPL 7",2460200.5,60200,2023-09-13.0,J2000,0.6846,2.858,0.901,5.64,136.38,115.15,16.07,4.81,0.204,2460121.73,2023-06-26.2,1.76e+03,4.83,0.0345,13.4,0.457,2.9,2.7e-04,2.4e-03,2.1e-06,1.3e-03,1.8e-03,3.6e-03,2.2e-02,4.1e-03,2.6e-04,5.6e-03,2.2e+00,APO,"Otto Matic",33,2023-08-07,2023-09-09,53,,,7,.50295,,,,,,,,,
54376984,"       (2023 QB)","2023 QB",,,Y,Y,0,20.78,,,,,,,,,,,,,,,,,0.30,,"JPL 8",2460200.5,60200,2023-09-13.0,J2000,0.7346,2.026,0.538,3.73,82.09,141.46,27.30,3.51,0.3417,2460120.62,2023-06-25.1,1.05e+03,2.88,0.0471,18.3,1.47,3.41,2.0e-05,1.2e-04,7.4e-06,6.3e-05,1.5e-03,1.5e-03,2.7e-03,2.1e-04,3.1e-05,7.3e-04,9.6e-02,APO,"Otto Matic",61,2023-08-16,2023-10-16,75,,,5,.33146,,,,,,,,,
54377396,"       (2023 QL1)","2023 QL1",,,Y,Y,0,21.11,,,,,,,,,,,,,,,,,0.27,,"JPL 8",2460200.5,60200,2023-09-13.0,J2000,0.6024,1.053,0.419,27.34,337.69,125.40,314.02,1.69,0.9125,2460250.89,2023-11-02.3,395,1.08,0.0108,4.21,3.6,5.58,4.5e-04,6.1e-04,2.3e-04,3.5e-02,4.0e-03,8.3e-03,6.9e-02,9.8e-04,8.0e-04,3.1e-02,3.4e-01,APO,"Otto Matic",18,2023-08-19,2023-09-06,50,,,7,.33482,,,,,,,,,
54377967,"       (2023 QA4)","2023 QA4",,,Y,Y,0,20.78,,,,,,,,,,,,,,,,,,,"JPL 46",2460200.5,60200,2023-09-13.0,J2000,0.5747,2.198,0.935,9.90,218.38,197.68,342.58,3.46,0.3024,2460258.09,2023-11-09.5,1.19e+03,3.26,0.0345,13.4,1.94,3.42,3.9e-06,2.0e-05,3.0e-07,4.2e-05,4.8e-05,4.2e-05,2.5e-04,3.1e-05,4.1e-06,3.8e-05,1.6e-02,APO,"Otto Matic",202,2023-07-27,2024-02-14,365,,,4,.36466,,,,,,,,,
54378342,"       (2023 QF5)","2023 QF5",,,Y,Y,0,18.32,,,,,,,,,,,,,,,,,0.44,,"JPL 21",2460200.5,60200,2023-09-13.0,J2000,0.4509,1.617,0.888,25.31,350.21,129.59,314.92,2.35,0.4792,2460294.58,2023-12-16.0,751,2.06,0.00513,2,2.88,4.12,3.3e-07,1.3e-07,6.0e-07,1.8e-05,3.3e-05,9.0e-05,2.8e-05,2.0e-07,6.0e-08,4.9e-05,9.4e-05,APO,"Otto Matic",3393,2014-07-18,2023-11-01,110,,,1,.41817,,,,,,,,,
54378880,"       (2023 QL7)","2023 QL7",,,Y,Y,0,20.71,,,,,,,,,,,,,,,,,0.46,,"JPL 20",2460200.5,60200,2023-09-13.0,J2000,0.2172,0.972,0.761,25.09,334.93,233.79,128.44,1.18,1.029,2460075.63,2023-05-11.1,350,0.958,0.0464,18,3.84,6.12,1.1e-06,5.0e-07,1.2e-06,1.3e-04,4.0e-05,1.5e-04,2.0e-04,6.1e-07,7.9e-07,1.5e-04,2.7e-04,ATE,"Otto Matic",201,2023-08-15,2024-03-03,178,,,3,.38109,,,,,,,,,
54379772,"       (2023 QP8)","2023 QP8",,,Y,Y,0,21.55,,,,,,,,,,,,,,,,,0.18,,"JPL 45",2460200.5,60200,2023-09-13.0,J2000,0.5847,2.384,0.990,6.71,60.16,353.62,343.62,3.78,0.2678,2460261.66,2023-11-13.1,1.34e+03,3.68,0.00368,1.43,1.62,3.27,3.7e-06,2.2e-05,1.6e-08,2.9e-05,2.8e-05,2.6e-05,2.3e-04,3.4e-05,3.6e-06,1.5e-05,1.8e-02,APO,"Otto Matic",178,2023-08-19,2024-02-13,187,,,4,.41771,,,,,,,,,
54418647,"       (2023 QR105)","2023 QR105",,,Y,Y,0,19.59,,,,,,,,,,,,,,,,,,,"JPL 6",2460200.5,60200,2023-09-13.0,J2000,0.6273,2.594,0.967,13.59,92.94,350.69,332.60,4.22,0.2359,2460316.65,2024-01-07.1,1.53e+03,4.18,0.0123,4.8,1.06,3.08,3.9e-08,4.7e-08,1.1e-07,6.6e-06,4.2e-05,4.4e-05,5.4e-06,7.6e-08,6.4e-09,2.3e-05,4.1e-05,APO,"Otto Matic",1642,2019-09-04,2024-03-03,58,,,0,.75732,,,,,,,,,
54381325,"       (2023 RJ3)","2023 RJ3",,,Y,Y,0,21.02,,,,,,,,,,,,,,,,,0.34,,"JPL 14",2460200.5,60200,2023-09-13.0,J2000,0.6818,1.997,0.635,8.32,345.21,271.61,23.07,3.36,0.3493,2460134.44,2023-07-08.9,1.03e+03,2.82,0.00848,3.3,1.83,3.5,2.0e-05,9.7e-05,1.0e-05,2.9e-04,3.1e-04,5.1e-04,1.9e-03,1.6e-04,2.5e-05,5.2e-04,7.5e-02,APO,"Otto Matic",58,2023-08-20,2023-10-17,137,,,5,.47468,,,,,,,,,
54382081,"       (2023 RE6)","2023 RE6",,,Y,Y,0,20.95,,,,,,,,,,,,,,,,,0.33,,"JPL 18",2460200.5,60200,2023-09-13.0,J2000,0.7279,2.392,0.651,10.50,335.43,288.23,14.82,4.13,0.2664,2460144.86,2023-07-19.3,1.35e+03,3.7,0.0278,10.8,1.28,3.09,3.7e-05,2.8e-04,1.3e-05,4.3e-04,1.6e-04,2.4e-04,2.9e-03,4.9e-04,4.7e-05,9.6e-04,2.4e-01,APO,"Otto Matic",36,2023-09-07,2023-10-13,184,,,6,.34541,,,,,,,,,
54382892,"       (2023 RC8)","2023 RC8",,,Y,Y,0,21.88,,,,,,,,,,,,,,,,,0.35,,"JPL 1",2460200.5,60200,2023-09-13.0,J2000,0.7338,0.7036,0.187,27.12,161.39,19.47,135.54,1.22,1.67,2460119.34,2023-06-23.8,216,0.59,0.0212,8.27,3.75,7.84,3.4e-03,2.5e-04,2.4e-03,4.1e-01,8.7e-02,7.9e-02,3.7e-01,4.4e-04,9.0e-04,2.4e-01,1.2e-01,ATE,"Otto Matic",2,2023-09-12,2023-09-14,18,,,8,.28257,,,,,,,,,
54383804,"       (2023 RG15)","2023 RG15",,,Y,Y,0,19.58,,,,,,,,,,,,,,,,,0.35,,"JPL 1",2460200.5,60200,2023-09-13.0,J2000,0.5467,2.219,1.006,13.84,228.22,346.03,61.99,3.43,0.2981,2459992.55,2023-02-17.0,1.21e+03,3.31,0.00582,2.26,1.57,3.41,8.5e-04,2.2e-03,9.0e-04,8.6e-03,4.8e-02,2.4e-02,1.2e-01,3.4e-03,4.4e-04,1.4e-01,1.8e+00,APO,"Otto Matic",8,2023-09-08,2023-09-16,18,,,7,.65046,,,,,,,,,
54427937,"       (2023 RT156)","2023 RT156",,,Y,Y,0,20.73,,,,,,,,,,,,,,,,,,,"JPL 1",2460200.5,60200,2023-09-13.0,J2000,0.5638,1.996,0.871,34.13,344.77,130.84,317.12,3.12,0.3495,2460323.21,2024-01-13.7,1.03e+03,2.82,0.00133,0.517,2.37,3.45,1.1e-05,4.7e-05,1.7e-06,4.8e-04,2.9e-04,2.3e-04,1.5e-03,7.4e-05,1.2e-05,1.1e-04,3.7e-02,APO,"Otto Matic",164,2023-09-08,2024-02-19,25,,,5,.47641,,,,,,,,,
54385241,"       (2023 SP1)","2023 SP1",,,Y,Y,0,20.82,,,,,,,,,,,,,,,,,,,"JPL 57",2460200.5,60200,2023-09-13.0,J2000,0.6278,2.464,0.917,1.90,96.72,0.83,329.76,4.01,0.2549,2460319.15,2024-01-09.6,1.41e+03,3.87,0.0185,7.19,1.21,3.18,2.5e-06,1.6e-05,2.1e-07,5.7e-06,9.3e-05,8.7e-05,2.9e-04,2.6e-05,2.5e-06,1.7e-05,1.4e-02,APO,"Otto Matic",201,2023-08-20,2024-03-08,454,,,4,.43282,,,,,,,,,
54385251,"       (2023 SZ1)","2023 SZ1",,,Y,Y,0,20.86,,,,,,,,,,,,,,,,,0.43,,"JPL 4",2460208.5,60208,2023-09-21.0,J2000,0.2662,1.129,0.829,42.37,9.58,83.15,307.01,1.43,0.8211,2460273.03,2023-11-24.5,438,1.2,0.0154,6,3.88,5.27,3.8e-04,8.9e-04,2.2e-04,2.7e-02,1.0e-02,1.1e-01,1.3e-01,1.1e-03,9.7e-04,8.4e-02,5.2e-01,APO,"Otto Matic",16,2023-09-16,2023-10-02,33,,,8,.30295,,,,,,,,,
54391023,"       (2023 TT1)","2023 TT1",,,Y,Y,0,21.95,,,,,,,,,,,,,,,,,0.29,,"JPL 14",2460227.5,60227,2023-10-10.0,J2000,0.7789,1.678,0.371,2.19,196.40,304.32,332.47,2.99,0.4532,2460288.24,2023-12-09.7,794,2.17,0.00569,2.22,2.07,3.81,9.4e-04,4.4e-03,6.0e-04,5.3e-03,3.5e-03,1.9e-02,1.3e-01,7.9e-03,1.8e-03,4.3e-02,3.2e+00,APO,"Otto Matic",17,2023-10-04,2023-10-21,111,,,8,.49948,,,,,,,,,
54392417,"       (2023 TL4)","2023 TL4",,,Y,Y,0,20.01,,,,,,,,,,,,,,,,,0.29,,"JPL 13",2460200.5,60200,2023-09-13.0,J2000,0.5797,1.486,0.625,60.70,195.76,89.16,14.63,2.35,0.5441,2460173.61,2023-08-17.1,662,1.81,0.00323,1.26,3.73,3.93,8.7e-06,3.7e-05,2.8e-06,5.0e-04,2.1e-05,9.9e-04,8.6e-04,5.9e-05,2.0e-05,5.8e-04,2.5e-02,APO,"Otto Matic",61,2023-10-06,2023-12-06,108,,,5,.31974,,,,,,,,,
54395910,"       (2023 UN1)","2023 UN1",,,Y,Y,0,21.69,,,,,,,,,,,,,,,,,0.34,,"JPL 4",2460200.5,60200,2023-09-13.0,J2000,0.3390,1.28,0.846,27.92,20.89,119.77,245.24,1.71,0.6808,2460369.08,2024-02-28.5,529,1.45,0.0302,11.7,3.41,4.89,8.5e-06,3.8e-05,1.5e-05,2.2e-03,7.4e-04,1.8e-03,4.5e-03,5.1e-05,3.0e-05,1.9e-03,2.3e-02,APO,"Otto Matic",69,2023-10-17,2023-12-25,33,,,5,.53881,,,,,,,,,
54402459,"       (2023 VF1)","2023 VF1",,,Y,Y,0,19.59,,,,,,,,,,,,,,,,,,,"JPL 9",2460200.5,60200,2023-09-13.0,J2000,0.8560,2.058,0.296,5.07,132.58,123.65,1.60,3.82,0.3338,2460195.72,2023-09-08.2,1.08e+03,2.95,0.00381,1.48,1.29,3.18,7.3e-05,1.0e-03,8.2e-06,1.8e-04,1.7e-02,2.0e-02,2.0e-03,1.9e-03,2.5e-04,2.5e-03,8.1e-01,APO,"Otto Matic",34,2023-11-02,2023-12-06,58,,,7,.4144,,,,,,,,,
54402981,"       (2023 VA3)","2023 VA3",,,Y,Y,0,21.68,,,,,,,,,,,,,,,,,0.32,,"JPL 8",2460200.5,60200,2023-09-13.0,J2000,0.2035,1.224,0.975,23.93,47.01,211.11,94.73,1.47,0.7277,2460070.31,2023-05-05.8,495,1.35,0.0106,4.11,3.56,5.12,1.5e-04,2.9e-04,5.5e-05,2.7e-02,1.6e-03,2.8e-02,3.5e-02,3.5e-04,2.6e-04,3.7e-03,1.8e-01,APO,"Otto Matic",31,2023-11-04,2023-12-05,40,,,7,.47285,,,,,,,,,
54403400,"       (2023 VS3)","2023 VS3",,,Y,Y,0,20.89,,,,,,,,,,,,,,,,,,,"JPL 13",2460200.5,60200,2023-09-13.0,J2000,0.4871,1.914,0.982,24.20,12.94,339.86,350.31,2.85,0.3722,2460226.55,2023-10-09.0,967,2.65,0.00186,0.725,2.64,3.69,2.4e-04,9.5e-04,2.1e-05,4.2e-03,4.4e-03,5.9e-03,5.1e-03,1.4e-03,2.8e-04,5.7e-03,7.2e-01,APO,"Otto Matic",36,2023-11-07,2023-12-13,60,,,7,.57797,,,,,,,,,
54404083,"       (2023 VO5)","2023 VO5",,,Y,Y,0,21.27,,,,,,,,,,,,,,,,,,,"JPL 14",2460200.5,60200,2023-09-13.0,J2000,0.5290,1.961,0.924,14.63,18.70,139.90,304.45,3.00,0.3588,2460355.30,2024-02-14.8,1e+03,2.75,0.00202,0.787,2.05,3.66,2.3e-05,9.8e-05,1.8e-06,4.7e-04,1.1e-03,1.4e-03,4.3e-03,1.5e-04,2.7e-05,5.1e-04,7.5e-02,APO,"Otto Matic",72,2023-11-08,2024-01-19,54,,,5,.30402,,,,,,,,,
54404094,"       (2023 VD6)","2023 VD6",,,Y,Y,0,21.61,,,,,,,,,,,,,,,,,,,"JPL 28",2460200.5,60200,2023-09-13.0,J2000,0.6820,2.423,0.771,2.01,101.16,49.13,323.62,4.08,0.2613,2460339.75,2024-01-30.2,1.38e+03,3.77,0.00787,3.06,0.941,3.15,1.2e-05,8.6e-05,2.6e-06,2.5e-05,9.4e-05,8.5e-05,2.0e-03,1.4e-04,1.4e-05,2.2e-04,7.3e-02,APO,"Otto Matic",65,2023-10-16,2023-12-20,286,,,5,.36203,,,,,,,,,
